1 35275U 08056E   18205.18338352 +.00000162 +00000-0 +79915-4 0  9994
2 35275 098.7907 190.5957 0140703 032.7408 328.2395 14.25082158497007
1 35278U 93036AJG 18204.34474021 +.00001273 +00000-0 +34576-3 0  9997
2 35278 074.0473 178.1726 0067519 181.9028 299.4557 14.47288136484428
1 35279U 93036AJH 18205.52474829 +.00001277 +00000-0 +19200-3 0  9996
2 35279 074.0033 277.7454 0034172 007.6054 352.5630 14.75278215489928
1 35280U 93036AJJ 18205.26343929 +.00000685 +00000-0 +20235-3 0  9997
2 35280 074.0334 163.5779 0066558 192.4786 234.3579 14.44184956484191
1 35281U 93036AJK 18205.22226734 +.00000860 +00000-0 +20901-3 0  9993
2 35281 074.0019 058.8761 0017779 285.5051 074.4148 14.54328779486842
1 35282U 93036AJL 18204.22793429 +.00001299 +00000-0 +31629-3 0  9999
2 35282 074.0964 143.9002 0098548 128.5809 232.4233 14.50837282484823
1 35283U 93036AJM 18205.29746779 +.00004891 +00000-0 +49314-3 0  9995
2 35283 074.0227 311.6950 0004484 312.5550 047.5254 14.91395793490473
1 35284U 93036AJN 18205.61980501 +.00000063 +00000-0 +30587-4 0  9995
2 35284 074.0488 177.6734 0017840 209.6291 271.4851 14.35859081267826
1 35285U 93036AJP 18204.37229458 +.00000829 +00000-0 +21584-3 0  9991
2 35285 074.0288 093.6298 0017683 141.3079 218.9352 14.51069169487585
1 35287U 93036AJR 18205.63576479 +.00000052 +00000-0 +27834-4 0  9994
2 35287 074.0299 182.7594 0019305 219.1486 262.9911 14.34476846481902
1 35288U 93036AJS 18205.30874181 +.00000425 +00000-0 +12485-3 0  9999
2 35288 073.9560 074.2944 0050154 197.7670 162.1736 14.46249107488295
1 35290U 93036AJU 18205.40523629 +.00000544 +00000-0 +16044-3 0  9998
2 35290 074.0190 118.7773 0014028 158.8482 201.3259 14.45878240489452
1 35291U 93036AJV 18205.27025729 +.00001170 +00000-0 +10450-3 0  9993
2 35291 074.0420 069.0522 0095807 129.8978 344.7761 14.93794864500277
1 35292U 93036AJW 18205.28788257 +.00003486 +00000-0 +32533-3 0  9995
2 35292 073.9993 187.2521 0030466 282.5529 077.2248 14.94281421270635
1 35293U 97051PH  18205.42398548 +.00005616 +00000-0 +39583-3 0  9992
2 35293 086.3060 006.7777 0017260 207.5112 152.5211 15.04686630494592
1 35294U 97051PJ  18205.40591528 +.00001437 +00000-0 +32314-3 0  9996
2 35294 086.3275 073.0229 0012784 222.1537 260.2171 14.55769714486087
1 35296U 97051PL  18205.32602542 +.00001110 +00000-0 +28044-3 0  9991
2 35296 086.3124 071.3767 0010338 243.3802 116.6343 14.50168788318575
1 35297U 97051PM  18205.54294161 +.00000265 +00000-0 +84605-4 0  9996
2 35297 086.3923 120.0848 0018261 007.4566 113.1213 14.35761336482508
1 35299U 97051PP  18205.05873012 +.00000303 +00000-0 +11443-3 0  9994
2 35299 086.2953 106.6416 0064023 201.7950 224.8360 14.26856526478634
1 35302U 97051PS  11220.41126999 +.00000525 +00000-0 +21736-3 0  9996
2 35302 086.2810 095.5222 0057197 026.9968 333.4197 14.23816577117120
1 35304U 97051PU  09349.80647301 +.00001210 +00000-0 +66305-3 0  9998
2 35304 086.3167 356.0655 0139899 197.2106 161.3332 14.06252434031366
1 35307U 91025AG  11175.07150852 +.00003478 +00000-0 +15834-1 0  9992
2 35307 065.1213 203.4950 5481019 341.4343 008.4239 04.52056668036581
1 35310U 91025AK  11349.26946552 +.00001966 +00000-0 +95020-2 0  9996
2 35310 065.6596 134.9796 5571389 333.1951 023.7471 04.38222833043526
1 35314U 91025AP  14079.17141616 +.00031141 +00000-0 +10525+0 0  9993
2 35314 063.6184 138.5983 5050164 358.5131 000.4306 05.19452887090258
1 35319U 99057RX  18204.67927295 +.00000115 +00000-0 +76810-4 0  9996
2 35319 098.5466 352.2550 0201795 256.1423 170.1885 14.08097367858455
1 35320U 99057RY  18205.10921110 +.00000242 +00000-0 +53403-4 0  9991
2 35320 098.0335 173.7833 0000833 055.2735 304.8547 14.65403250621848
1 35322U 99057SA  18205.05556379 +.00000025 +00000-0 +33314-4 0  9996
2 35322 098.9922 158.1464 0202133 286.5841 071.3218 14.11427713773325
1 35323U 99057SB  18205.19572667 +.00000244 +00000-0 +64993-4 0  9990
2 35323 098.3891 209.0273 0064465 235.0591 124.4540 14.56096452709940
1 35324U 99057SC  11274.16073958 -.00003280 +00000-0 -11189-2 0  9998
2 35324 098.3666 234.7514 0095375 207.6294 152.0497 14.33273117302669
1 35325U 99057SD  18205.09662886 +.00000518 +00000-0 +84195-4 0  9994
2 35325 098.4686 167.2905 0017904 192.4102 167.6667 14.75526494274651
1 35326U 99057SE  18205.31432102 +.00000295 +00000-0 +18172-3 0  9999
2 35326 098.4218 236.6304 0228646 133.6403 228.3976 13.99508203696340
1 35327U 99057SF  18204.75515080 +.00000292 +00000-0 +87956-4 0  9998
2 35327 098.6301 187.0822 0090607 263.3355 095.7518 14.47919066761316
1 35329U 99057SH  18205.49669375 -.00000024 +00000-0 +71210-5 0  9990
2 35329 098.3252 079.9691 0133834 344.6360 134.3869 14.27151368834942
1 35330U 99057SJ  18205.11182183 +.00000003 +00000-0 +15323-4 0  9996
2 35330 098.5877 163.1954 0085262 341.4907 018.3184 14.39607923806788
1 35331U 99057SK  18205.20952753 +.00000577 +00000-0 +16137-3 0  9994
2 35331 098.6810 191.1475 0118660 115.2234 303.0137 14.46048201816818
1 35332U 99057SL  18205.56096466 -.00000025 +00000-0 +67682-5 0  9996
2 35332 098.4883 106.4562 0123641 026.3802 334.3604 14.26314498806582
1 35334U 99057SN  18205.37426441 +.00000204 +00000-0 +64840-4 0  9997
2 35334 098.5251 179.9187 0075890 167.4569 192.8535 14.48520017651499
1 35335U 01049PT  12034.85550724 +.00000176 +00000-0 +38114-4 0  9994
2 35335 097.7722 002.3658 0048743 221.5748 116.7175 14.68335919350593
1 35336U 01049PU  15310.22555668  .00001460  00000-0  25698-3 0  9997
2 35336  97.7288 110.5233 0077542 135.1599 233.4363 14.67055962585070
1 35338U 01049PW  14107.23843678 +.00007045 +00000-0 +19110-2 0  9990
2 35338 097.9127 182.5090 0178274 012.9460 349.5390 14.38874493537127
1 35339U 01049PX  18205.48959631 +.00000456 +00000-0 +14373-3 0  9994
2 35339 098.1261 033.0254 0183126 218.0881 140.7244 14.35775978824145
1 35341U 01049PZ  18205.57693734 +.00000632 +00000-0 +85024-4 0  9994
2 35341 097.8753 115.3647 0033451 311.8025 048.0332 14.82361522821522
1 35342U 01049QA  18205.31637719 +.00000090 +00000-0 +61028-4 0  9994
2 35342 098.2374 037.5633 0366919 033.1697 329.1899 13.89526112259153
1 35344U 01049QC  18204.38403364 +.00000295 +00000-0 +63563-4 0  9992
2 35344 098.0132 272.7138 0055692 115.3923 245.3060 14.64404051273668
1 35345U 01049QD  18204.76286159 +.00000489 +00000-0 +10485-3 0  9995
2 35345 098.0731 191.4276 0062961 240.1205 119.3731 14.61815045760977
1 35346U 01049QE  18205.17977585 +.00000498 +00000-0 +14641-3 0  9990
2 35346 098.9077 197.6436 0037620 230.1668 129.6211 14.47989970839092
1 35347U 01049QF  18204.31815975 +.00012329 +00000-0 +42508-3 0  9999
2 35347 098.3796 156.2195 0017071 070.0455 290.2619 15.30041743807004
1 35348U 01049QG  18205.20798141 +.00000736 +00000-0 +13553-3 0  9991
2 35348 098.0056 192.8023 0055132 080.7539 279.9896 14.67526518859014
1 35349U 01049QH  18196.25576588  .00002243  00000-0  10797-3 0  9997
2 35349  97.5440 205.2440 0020155 178.9274 181.2007 15.19664672643259
1 35350U 01049QJ  18205.13060939 +.00000157 +00000-0 +54007-4 0  9990
2 35350 098.4496 168.1220 0074228 150.9446 209.5909 14.47247820787342
1 35351U 01049QK  18204.51559954 +.00000411 +00000-0 +13672-3 0  9997
2 35351 098.7610 106.7788 0005681 042.4723 317.6905 14.42982398788799
1 35354U 93014BD  18204.93304114 +.00002354 +00000-0 +30734-3 0  9991
2 35354 075.7377 291.9499 0070115 085.1733 275.7454 14.79106131651023
1 35356U 93014BF  18205.06764399 +.00003147 +00000-0 +45192-3 0  9998
2 35356 075.7473 334.3678 0071115 129.3883 231.3629 14.74970426270773
1 35359U 93014BJ  18204.05932587 +.00002731 +00000-0 +37967-3 0  9994
2 35359 075.7414 339.1544 0067279 139.4409 221.1817 14.76563035579503
1 35360U 93014BK  18205.58147833 +.00002261 +00000-0 +31386-3 0  9994
2 35360 075.7388 302.3759 0079535 101.6532 259.3591 14.76058280603018
1 35374U 06046G   18205.53225166 +.00000817 +00000-0 +33891-4 0  9998
2 35374 097.4385 233.6569 0056431 302.4856 057.0934 15.25498145645592
1 35375U 06046H   18205.52965332 +.00000227 +00000-0 +23370-4 0  9990
2 35375 097.8716 216.7314 0029023 020.4116 143.1705 14.99681769638195
1 35376U 06046J   18205.37847516 +.00000449 +00000-0 +95072-4 0  9991
2 35376 097.7560 265.7748 0195344 290.3210 128.4630 14.52806145618063
1 35378U 06046L   18205.31950706 +.00000696 +00000-0 +12514-3 0  9996
2 35378 097.8434 340.3445 0172283 155.8365 205.1041 14.60454003615835
1 35379U 03049F   18201.23174122  .00000017  00000-0  43960-4 0  9991
2 35379  99.0486 112.5210 0176893 191.1685 322.6077 13.88742808728094
1 35380U 03049G   18204.24904983 +.00003796 +00000-0 +35179-3 0  9992
2 35380 097.9962 310.1688 0036674 201.2886 158.6810 14.94598199652329
1 35381U 03049H   18205.15887940 +.00000507 +00000-0 +98377-4 0  9994
2 35381 098.6584 176.4497 0098297 326.3799 094.9264 14.65139703773228
1 35382U 03049J   18205.22423534 +.00000128 +00000-0 +74537-4 0  9999
2 35382 098.6924 127.4393 0154458 201.9610 157.4898 14.17922079744230
1 35383U 03049K   18205.51243319 -.00000003 +00000-0 +10613-4 0  9991
2 35383 098.4754 105.0519 0051681 015.1157 108.6723 14.56006759292309
1 35384U 99057SP  18204.61016366 +.00004770 +00000-0 +37787-3 0  9990
2 35384 098.2249 264.0845 0005015 104.8752 255.3027 15.01091448285974
1 35387U 99057SS  18205.11952671 +.00000579 +00000-0 +16555-3 0  9990
2 35387 098.4481 163.1315 0005534 083.7882 276.3941 14.48660700548763
1 35391U 95021E   18203.42671925  .00000242  00000-0  96542-4 0  9996
2 35391  98.2864 180.2166 0007040 126.8076  27.3034 14.36646121582171
1 35392U 95021F   18205.53796048 +.00000321 +00000-0 +11617-3 0  9992
2 35392 098.1998 240.9061 0002588 206.1036 154.0023 14.39514678553029
1 35393U 95021G   18205.45183111 +.00000274 +00000-0 +97499-4 0  9995
2 35393 098.1841 190.3697 0006372 047.6721 105.5329 14.41336003785567
1 35397U 07042E   18205.17786806 +.00000475 +00000-0 +10123-3 0  9995
2 35397 098.6285 103.1953 0110583 073.9442 287.3901 14.60225023561913
1 35398U 07042F   18205.12206197 +.00001245 +00000-0 +13634-3 0  9997
2 35398 098.5353 164.3979 0097544 045.8432 015.5390 14.86508489572221
